ONEWEB-0473             
1 51653U 22012AH  26155.73106640  .00000520  00000+0  14521-2 0  9994
2 51653  87.8847  38.7573 0001847  79.7973 280.3362 13.10376492207671
ONEWEB-0474             
1 51654U 22012AJ  26155.64639869  .00000144  00000+0  37568-3 0  9998
2 51654  87.8858  38.7572 0001795  72.8407 287.2917 13.10378117207657
ONEWEB-0475             
1 51655U 22012AK  26156.07255343  .00000011  00000+0 -37330-5 0  9991
2 51655  87.9139   8.2825 0001905  62.2355 297.8969 13.17650410212096
ONEWEB-0490             
1 54113U 22138A   26154.48755551 -.00000087  00000+0 -24944-3 0  9990
2 54113  87.9171 307.6968 0001584  93.3842 266.7472 13.19726669175024
ONEWEB-0492             
1 54114U 22138B   26156.18080649  .00000492  00000+0  11969-2 0  9999
2 54114  87.9161 307.3615 0001629 100.8789 259.2527 13.19726421175253
ONEWEB-0495             
1 54115U 22138C   26154.49071352 -.00000006  00000+0 -47461-4 0  9994
2 54115  87.9159 307.7010 0001203  86.4008 273.7262 13.19727525175012
ONEWEB-0497             
1 54116U 22138D   26156.17131728  .00000044  00000+0  76916-4 0  9993
2 54116  87.9165 307.3572 0001754  96.6199 263.5134 13.19727110175222
ONEWEB-0499             
1 54117U 22138E   26154.48678030  .00000160  00000+0  36810-3 0  9995
2 54117  87.9149 307.7032 0001526  87.1934 272.9373 13.19725818175018
ONEWEB-0500             
1 54118U 22138F   26154.48912808  .00000522  00000+0  12724-2 0  9999
2 54118  87.9180 307.6978 0001829 108.9232 251.2100 13.19725612175022
ONEWEB-0501             
1 54119U 22138G   26156.11128728  .00000026  00000+0  32431-4 0  9990
2 54119  87.9215 307.3658 0002477  70.5049 289.6352 13.19736595175211
ONEWEB-0502             
1 54120U 22138H   26156.17288463 -.00000066  00000+0 -19762-3 0  9998
2 54120  87.9170 307.3484 0001679  88.6453 271.4872 13.19726406175241
ONEWEB-0503             
1 54121U 22138J   26152.44682126  .00000112  00000+0  24712-3 0  9990
2 54121  87.9166 308.0965 0002022  90.2839 269.8526 13.19727739174740
ONEWEB-0504             
1 54122U 22138K   26154.48124098  .00000046  00000+0  83115-4 0  9995
2 54122  87.9166 307.6964 0001685  89.8092 270.3233 13.19726137175029
ONEWEB-0505             
1 54123U 22138L   26154.32645868 -.00000021  00000+0 -84783-4 0  9999
2 54123  87.9166 307.7277 0001530  85.5692 274.5616 13.19725389174989
ONEWEB-0506             
1 54124U 22138M   26156.12076741  .00000958  00000+0  23589-2 0  9990
2 54124  87.9168 307.3672 0001599  90.5575 269.5741 13.19734954175216
ONEWEB-0507             
1 54125U 22138N   26155.98967846  .00000194  00000+0  45144-3 0  9993
2 54125  87.9160 307.4066 0001611  92.8554 267.2763 13.19727491175244
ONEWEB-0508             
1 54126U 22138P   26154.47017173  .00000097  00000+0  20997-3 0  9997
2 54126  87.9157 307.7093 0001373  94.2968 265.8322 13.19727524175022
ONEWEB-0509             
1 54127U 22138Q   26156.11285700  .00002135  00000+0  52990-2 0  9996
2 54127  87.9125 307.3755 0001449 137.8235 222.3009 13.19744014175218
ONEWEB-0510             
1 54128U 22138R   26156.31396667 -.00000070  00000+0 -20375-3 0  9995
2 54128  87.9204 276.8013 0002373 104.4199 255.7197 13.20772165177715
ONEWEB-0511             
1 54129U 22138S   26156.10973140  .00000001  00000+0 -30178-4 0  9996
2 54129  87.9170 307.3732 0001865  81.0764 279.0580 13.19725240175240
ONEWEB-0512             
1 54130U 22138T   26156.17763301 -.00000010  00000+0 -58045-4 0  9995
2 54130  87.9160 307.3660 0001372  87.4715 272.6575 13.19724341175222
ONEWEB-0513             
1 54131U 22138U   26156.11240757 -.00000097  00000+0 -27346-3 0  9999
2 54131  87.9164 307.3245 0001596  61.8419 298.2875 13.20268557175121
ONEWEB-0514             
1 54132U 22138V   26156.11761431  .00000030  00000+0  41692-4 0  9993
2 54132  87.9171 307.3708 0001953  95.5433 264.5922 13.19726963175230
ONEWEB-0515             
1 54133U 22138W   26156.07320417  .00000145  00000+0  32543-3 0  9995
2 54133  87.9193 276.8443 0002421 120.0531 240.0843 13.20773148177709
ONEWEB-0516             
1 54134U 22138X   26154.50018493  .00000182  00000+0  42148-3 0  9993
2 54134  87.9143 307.7024 0001610 103.2682 256.8630 13.19727602175027
ONEWEB-0517             
1 54135U 22138Y   26154.47965331 -.00000127  00000+0 -34929-3 0  9991
2 54135  87.9165 307.6963 0002086  89.8865 270.2507 13.19726757175026
ONEWEB-0518             
1 54136U 22138Z   26153.81629712 -.00000010  00000+0 -57844-4 0  9992
2 54136  87.9155 307.8385 0001680 101.2384 258.8937 13.19726806174933
ONEWEB-0519             
1 54137U 22138AA  26156.11605433  .00000064  00000+0  12729-3 0  9992
2 54137  87.9160 307.3717 0001972  98.3968 261.7388 13.19725912175247
ONEWEB-0520             
1 54138U 22138AB  26154.48281992 -.00000042  00000+0 -13626-3 0  9996
2 54138  87.9168 307.6965 0001546  93.2630 266.8680 13.19726628175012
ONEWEB-0521             
1 54139U 22138AC  26156.18395495  .00000048  00000+0  88035-4 0  9991
2 54139  87.9171 307.3459 0002043  91.8533 268.2834 13.19726968175183
