OBJECT_NAME,OBJECT_ID,EPOCH,MEAN_MOTION,ECCENTRICITY,INCLINATION,RA_OF_ASC_NODE,ARG_OF_PERICENTER,MEAN_ANOMALY,EPHEMERIS_TYPE,CLASSIFICATION_TYPE,NORAD_CAT_ID,ELEMENT_SET_NO,REV_AT_EPOCH,BSTAR,MEAN_MOTION_DOT,MEAN_MOTION_DDOT
ONEWEB-0473,2022-012AH,2026-06-04T17:32:44.136960,13.10376492,.0001847,87.8847,38.7573,79.7973,280.3362,0,U,51653,999,20767,.14521E-2,.52E-5,0
ONEWEB-0474,2022-012AJ,2026-06-04T15:30:48.846816,13.10378117,.00017959,87.8858,38.7572,72.8407,287.2917,0,U,51654,999,20765,.37567681E-3,.144E-5,0
ONEWEB-0475,2022-012AK,2026-06-05T01:44:28.616352,13.17650410,.00019052,87.9139,8.2825,62.2355,297.8969,0,U,51655,999,21209,-.3733033E-5,.11E-6,0
ONEWEB-0490,2022-138A,2026-06-03T11:42:04.796064,13.19726669,.00015846,87.9171,307.6968,93.3842,266.7472,0,U,54113,999,17502,-.24944077E-3,-.87E-6,0
ONEWEB-0492,2022-138B,2026-06-05T04:20:21.680736,13.19726421,.00016291,87.9161,307.3615,100.8789,259.2527,0,U,54114,999,17525,.11969064E-2,.492E-5,0
ONEWEB-0495,2022-138C,2026-06-03T11:46:37.648128,13.19727525,.0001203,87.9159,307.7010,86.4008,273.7262,0,U,54115,999,17501,-.47461E-4,-.6E-7,0
ONEWEB-0497,2022-138D,2026-06-05T04:06:41.812992,13.19727110,.00017543,87.9165,307.3572,96.6199,263.5134,0,U,54116,999,17522,.76916142E-4,.44E-6,0
ONEWEB-0499,2022-138E,2026-06-03T11:40:57.817920,13.19725818,.00015265,87.9149,307.7032,87.1934,272.9373,0,U,54117,999,17501,.36810188E-3,.16E-5,0
ONEWEB-0500,2022-138F,2026-06-03T11:44:20.666112,13.19725612,.0001829,87.9180,307.6978,108.9232,251.2100,0,U,54118,999,17502,.12724E-2,.522E-5,0
ONEWEB-0501,2022-138G,2026-06-05T02:40:15.220992,13.19736595,.00024776,87.9215,307.3658,70.5049,289.6352,0,U,54119,999,17521,.32430877E-4,.26E-6,0
ONEWEB-0502,2022-138H,2026-06-05T04:08:57.232032,13.19726406,.0001679,87.9170,307.3484,88.6453,271.4872,0,U,54120,999,17524,-.19762394E-3,-.66E-6,0
ONEWEB-0503,2022-138J,2026-06-01T10:43:25.356864,13.19727739,.00020224,87.9166,308.0965,90.2839,269.8526,0,U,54121,999,17474,.24711561E-3,.112E-5,0
ONEWEB-0504,2022-138K,2026-06-03T11:32:59.220672,13.19726137,.00016857,87.9166,307.6964,89.8092,270.3233,0,U,54122,999,17502,.83114807E-4,.46E-6,0
ONEWEB-0505,2022-138L,2026-06-03T07:50:06.029952,13.19725389,.000153,87.9166,307.7277,85.5692,274.5616,0,U,54123,999,17498,-.8478349E-4,-.21E-6,0
ONEWEB-0506,2022-138M,2026-06-05T02:53:54.304224,13.19734954,.00015992,87.9168,307.3672,90.5575,269.5741,0,U,54124,999,17521,.23588624E-2,.958E-5,0
ONEWEB-0507,2022-138N,2026-06-04T23:45:08.218944,13.19727491,.00016113,87.9160,307.4066,92.8554,267.2763,0,U,54125,999,17524,.45143845E-3,.194E-5,0
ONEWEB-0508,2022-138P,2026-06-03T11:17:02.837472,13.19727524,.0001373,87.9157,307.7093,94.2968,265.8322,0,U,54126,999,17502,.20997336E-3,.97E-6,0
ONEWEB-0509,2022-138Q,2026-06-05T02:42:30.844800,13.19744014,.00014497,87.9125,307.3755,137.8235,222.3009,0,U,54127,999,17521,.52989788E-2,.2135E-4,0
ONEWEB-0510,2022-138R,2026-06-05T07:32:06.720288,13.20772165,.00023737,87.9204,276.8013,104.4199,255.7197,0,U,54128,999,17771,-.20375234E-3,-.7E-6,0
ONEWEB-0511,2022-138S,2026-06-05T02:38:00.792960,13.19725240,.00018652,87.9170,307.3732,81.0764,279.0580,0,U,54129,999,17524,-.30177754E-4,.1E-7,0
ONEWEB-0512,2022-138T,2026-06-05T04:15:47.492064,13.19724341,.0001372,87.9160,307.3660,87.4715,272.6575,0,U,54130,999,17522,-.58045171E-4,-.1E-6,0
ONEWEB-0513,2022-138U,2026-06-05T02:41:52.014048,13.20268557,.00015961,87.9164,307.3245,61.8419,298.2875,0,U,54131,999,17512,-.273463E-3,-.97E-6,0
ONEWEB-0514,2022-138V,2026-06-05T02:49:21.876384,13.19726963,.00019538,87.9171,307.3708,95.5433,264.5922,0,U,54132,999,17523,.41691886E-4,.3E-6,0
ONEWEB-0515,2022-138W,2026-06-05T01:45:24.840288,13.20773148,.0002421,87.9193,276.8443,120.0531,240.0843,0,U,54133,999,17770,.32543124E-3,.145E-5,0
ONEWEB-0516,2022-138X,2026-06-03T12:00:15.977952,13.19727602,.000161,87.9143,307.7024,103.2682,256.8630,0,U,54134,999,17502,.42148E-3,.182E-5,0
ONEWEB-0517,2022-138Y,2026-06-03T11:30:42.045984,13.19726757,.0002086,87.9165,307.6963,89.8865,270.2507,0,U,54135,999,17502,-.34928588E-3,-.127E-5,0
ONEWEB-0518,2022-138Z,2026-06-02T19:35:28.071168,13.19726806,.00016802,87.9155,307.8385,101.2384,258.8937,0,U,54136,999,17493,-.57843958E-4,-.1E-6,0
ONEWEB-0519,2022-138AA,2026-06-05T02:47:07.094112,13.19725912,.0001972,87.9160,307.3717,98.3968,261.7388,0,U,54137,999,17524,.12729295E-3,.64E-6,0
ONEWEB-0520,2022-138AB,2026-06-03T11:35:15.641088,13.19726628,.00015463,87.9168,307.6965,93.2630,266.8680,0,U,54138,999,17501,-.13625672E-3,-.42E-6,0
ONEWEB-0521,2022-138AC,2026-06-05T04:24:53.707680,13.19726968,.00020439,87.9171,307.3459,91.8533,268.2834,0,U,54139,999,17518,.88034815E-4,.48E-6,0
